OBJECT_NAME,OBJECT_ID,EPOCH,MEAN_MOTION,ECCENTRICITY,INCLINATION,RA_OF_ASC_NODE,ARG_OF_PERICENTER,MEAN_ANOMALY,EPHEMERIS_TYPE,CLASSIFICATION_TYPE,NORAD_CAT_ID,ELEMENT_SET_NO,REV_AT_EPOCH,BSTAR,MEAN_MOTION_DOT,MEAN_MOTION_DDOT
SL-16 R/B,1994-077B,2026-07-15T22:50:10.277376,14.15574223,.00040877,70.9821,82.6484,302.7536,57.3192,0,U,23405,999,63438,.635394E-5,-.35E-6,0
ARIANE 40+ R/B,1995-021B,2026-07-15T20:01:38.506080,14.39847770,.00079166,98.4401,266.4939,114.7731,359.7657,0,U,23561,999,63768,.50440535E-4,.115E-5,0
SL-16 R/B,1995-058B,2026-07-15T12:58:33.421440,14.15508949,.00146168,71.0210,271.8302,282.3394,77.6093,0,U,23705,999,58594,.12261226E-3,.192E-5,0
SL-16 R/B,1996-051B,2026-07-15T12:01:04.478592,14.12456593,.00178206,70.7646,264.7305,297.6936,62.2375,0,U,24298,999,53969,.11182918E-3,.157E-5,0
ORBVIEW 2 (SEASTAR),1997-037A,2026-07-15T22:40:48.000000,14.35566981,.00030747,98.8714,4.7648,59.3288,300.8199,0,U,24883,999,52687,.46250114E-4,.86E-6,0
SL-16 R/B,1998-043G,2026-07-15T20:22:18.200064,14.26072774,.0009993,98.8379,151.2572,9.6080,350.5289,0,U,25400,999,45725,.17663715E-4,-.3E-7,0
SL-16 R/B,1998-045B,2026-07-15T11:43:57.503136,14.16205258,.0008168,71.0109,272.8110,206.2295,153.8416,0,U,25407,999,44519,-.68746021E-4,-.184E-5,0
ISS (ZARYA),1998-067A,2026-07-15T18:23:37.536288,15.49019038,.00067189,51.6311,158.6576,300.0875,59.9447,0,U,25544,999,57618,.82095193E-4,.4078E-4,0
CZ-4B R/B,1999-025C,2026-07-15T03:31:11.385984,14.18287708,.00366359,98.6472,237.2795,339.8742,87.7118,0,U,25732,999,40623,.28530562E-4,.16E-6,0
OKEAN-O,1999-039A,2026-07-15T17:36:51.838848,14.80497852,.00008819,97.9302,255.2018,88.0835,272.0479,0,U,25860,999,45333,.42875965E-4,.276E-5,0
SL-16 R/B,1999-039B,2026-07-15T17:30:05.535072,14.81871150,.00143443,97.9824,255.5087,196.6553,163.4191,0,U,25861,999,45582,.36158442E-4,.232E-5,0
DELTA 2 R/B,1999-041E,2026-07-15T06:36:48.499776,14.12085285,.05013878,51.7613,151.5757,4.9948,355.5728,0,U,25876,999,38105,.24210257E-3,.1267E-4,0
HELIOS 1B,1999-064A,2026-07-15T06:52:19.736256,14.88075271,.00019214,98.1585,102.2367,54.1371,306.0023,0,U,25977,999,70423,.77122232E-4,.65E-5,0
TERRA,1999-068A,2026-07-15T21:58:06.704832,14.61123995,.00034454,97.9441,245.3203,121.1429,292.0122,0,U,25994,999,41380,.44336919E-4,.174E-5,0
SL-16 R/B,2000-006B,2026-07-15T09:30:20.058336,14.15837986,.00171945,71.0002,189.3105,339.7349,20.3089,0,U,26070,999,36663,-.41833191E-4,-.13E-5,0
TITAN 4B R/B,2000-047B,2026-07-15T22:26:40.655328,15.10335014,.00458115,67.9873,39.6440,258.0263,101.5749,0,U,26474,999,41227,.79980252E-4,.1204E-4,0
ENVISAT,2002-009A,2026-07-15T21:31:31.960416,14.39070823,.00013246,98.3846,147.5774,83.1983,345.7951,0,U,27386,999,27761,.19312938E-4,.17E-6,0
IDEFIX & ARIANE 42P R/B,2002-021B,2026-07-15T19:05:31.081632,14.31093901,.0011926,98.5942,133.9694,164.7365,195.4180,0,U,27422,999,26234,.49884217E-4,.88E-6,0
AQUA,2002-022A,2026-07-14T12:07:11.762400,14.62196472,.0000927,98.4295,165.3370,111.8770,0.7592,0,U,27424,999,28726,.80863616E-4,.358E-5,0
CZ-4B R/B,2002-024C,2026-07-15T18:07:16.918752,14.14568324,.00504369,98.8686,249.3874,20.4126,89.1850,0,U,27432,999,24734,.25408782E-4,.5E-7,0
MIDORI II (ADEOS-II),2002-056A,2026-07-15T21:48:20.234592,14.29363216,.00014449,98.7895,156.4153,40.1174,320.0114,0,U,27597,999,22861,.52231631E-4,.88E-6,0
H-2A R/B,2002-056E,2026-07-15T21:41:00.683232,14.33834115,.00709259,98.3328,152.5337,138.8398,288.6511,0,U,27601,999,23248,.54141899E-4,.114E-5,0
CZ-4B R/B,2003-049C,2026-07-15T21:44:08.290464,14.55116335,.00476912,98.6910,196.8971,199.0638,160.8775,0,U,28059,999,20524,.40044204E-4,.124E-5,0
CZ-2C R/B,2004-012C,2026-07-15T19:30:39.438144,15.85338523,.00111067,97.7047,275.9435,188.8934,171.2140,0,U,28222,999,22442,.44647043E-3,.107268E-2,0
SL-16 R/B,2004-021B,2026-07-15T19:11:26.685024,14.14616500,.00062869,71.0029,323.6400,224.6358,135.4259,0,U,28353,999,14095,.2738042E-5,-.42E-6,0
CZ-4B R/B,2004-035C,2026-07-15T16:44:51.595296,15.30996440,.00292787,97.3354,229.4554,230.7581,129.1062,0,U,28415,999,19948,.14218212E-3,.4234E-4,0
CZ-2C R/B,2004-046B,2026-07-15T07:24:09.012096,14.27033171,.0140134,98.1916,103.3279,137.0583,224.1641,0,U,28480,999,12670,.38377785E-4,.64E-6,0
ARIANE 5 R/B,2004-049H,2026-07-15T21:25:22.885536,14.85479344,.00826164,98.2741,10.2590,295.9962,63.2760,0,U,28499,999,16482,.29961592E-4,.208E-5,0
CZ-2D R/B,2005-024B,2026-07-15T01:14:42.976320,15.72739019,.00024014,97.3469,216.9360,193.0107,167.1096,0,U,28738,999,15971,.33465455E-3,.45064E-3,0
ALOS (DAICHI),2006-002A,2026-07-15T21:09:44.868384,14.70102533,.00008284,98.1338,152.3631,101.2889,258.8410,0,U,28931,999,9231,.84052529E-4,.455E-5,0
